     2              NAVIGATION DATA                         RINEX VERSION / TYPE
CCRINEXN V1.6.0 UX  CDDIS               23-MAR-16 23:39     PGM / RUN BY / DATE 
IGS BROADCAST EPHEMERIS FILE                                COMMENT             
    0.1118D-07  0.7451D-08 -0.5960D-07 -0.5960D-07          ION ALPHA           
    0.9011D+05  0.1638D+05 -0.1966D+06 -0.6554D+05          ION BETA            
   -0.186264514923D-08-0.177635683940D-14   589824     1889 DELTA-UTC: A0,A1,T,W
    17                                                      LEAP SECONDS        
                                                            END OF HEADER       
14 16  3 23 10  0  0.0-0.416673719883D-05-0.227373675443D-11 0.000000000000D+00
    0.710000000000D+02 0.709375000000D+02 0.474841207614D-08 0.692026610920D+00
    0.376440584660D-05 0.840907823294D-02 0.557489693165D-05 0.515373825645D+04
    0.295200000000D+06-0.968575477600D-07 0.113233493077D+01 0.745058059692D-08
    0.964224208791D+00 0.276500000000D+03-0.195246069057D+01-0.846213819631D-08
    0.266082511976D-09 0.100000000000D+01 0.188900000000D+04 0.000000000000D+00
    0.200000000000D+01 0.000000000000D+00-0.931322574616D-08 0.710000000000D+02
    0.288000000000D+06 0.000000000000D+00 0.000000000000D+00 0.000000000000D+00
15 16  3 23 10  0  0.0-0.303051900119D-03-0.181898940355D-11 0.000000000000D+00
    0.520000000000D+02 0.820000000000D+02 0.547522827077D-08-0.104976910858D+00
    0.426545739174D-05 0.809521786869D-02 0.565871596336D-05 0.515355956078D+04
    0.295200000000D+06 0.987201929092D-07 0.998216293864D+00 0.856816768646D-07
    0.931157453051D+00 0.251531250000D+03 0.478262937983D+00-0.877893668871D-08
    0.322870591374D-09 0.100000000000D+01 0.188900000000D+04 0.000000000000D+00
    0.200000000000D+01 0.000000000000D+00-0.107102096081D-07 0.520000000000D+02
    0.288030000000D+06 0.000000000000D+00 0.000000000000D+00 0.000000000000D+00
16 16  3 23 10  0  0.0-0.300607644021D-04 0.284217094304D-11 0.000000000000D+00
    0.590000000000D+02-0.953125000000D+01 0.340799909970D-08 0.169912091134D+01
   -0.352039933205D-06 0.870032282546D-02 0.134315341711D-04 0.515373713875D+04
    0.295200000000D+06-0.800937414169D-07-0.306238632621D+01 0.707805156708D-07
    0.991196465369D+00 0.137437500000D+03 0.345810181479D+00-0.749602652531D-08
   -0.335728270144D-10 0.100000000000D+01 0.188900000000D+04 0.000000000000D+00
    0.200000000000D+01 0.000000000000D+00-0.102445483208D-07 0.590000000000D+02
    0.288000000000D+06 0.400000000000D+01 0.000000000000D+00 0.000000000000D+00
17 16  3 23 10  0  0.0-0.202375464141D-03-0.454747350886D-12 0.000000000000D+00
    0.140000000000D+02 0.647812500000D+02 0.448697257127D-08 0.760571094782D+00
    0.328198075295D-05 0.109894984635D-01 0.583380460739D-05 0.515365773773D+04
    0.295200000000D+06-0.147148966789D-06-0.204040876100D+01 0.596046447754D-07
    0.975460775765D+00 0.272875000000D+03-0.193517355879D+01-0.833177526971D-08
    0.425017715466D-09 0.100000000000D+01 0.188900000000D+04 0.000000000000D+00
    0.200000000000D+01 0.000000000000D+00-0.107102096081D-07 0.140000000000D+02
    0.288030000000D+06 0.000000000000D+00 0.000000000000D+00 0.000000000000D+00
18 16  3 23 10  0  0.0 0.496704131365D-03 0.409272615798D-11 0.000000000000D+00
    0.690000000000D+02-0.262812500000D+02 0.498699348483D-08 0.232111855398D+01
   -0.147894024849D-05 0.168663321529D-01 0.129509717226D-04 0.515367975426D+04
    0.295200000000D+06 0.147148966789D-06-0.212818753670D-01-0.258907675743D-06
    0.925543415684D+00 0.105625000000D+03-0.190291832906D+01-0.794140220250D-08
   -0.178936018780D-09 0.100000000000D+01 0.188900000000D+04 0.000000000000D+00
    0.200000000000D+01 0.000000000000D+00-0.111758708954D-07 0.690000000000D+02
    0.294180000000D+06 0.000000000000D+00 0.000000000000D+00 0.000000000000D+00
19 16  3 23 10  0  0.0-0.525417272002D-03-0.113686837722D-12 0.000000000000D+00
    0.440000000000D+02 0.646875000000D+02 0.457554794053D-08-0.238784211299D+01
    0.310130417347D-05 0.107355921064D-01 0.495277345181D-05 0.515360533524D+04
    0.295200000000D+06 0.134110450745D-06-0.199144648454D+01-0.115483999252D-06
    0.972515510592D+00 0.289468750000D+03 0.728165699436D+00-0.808569389221D-08
    0.571809544159D-09 0.100000000000D+01 0.188900000000D+04 0.000000000000D+00
    0.200000000000D+01 0.000000000000D+00-0.153668224812D-07 0.440000000000D+02
    0.288030000000D+06 0.000000000000D+00 0.000000000000D+00 0.000000000000D+00
20 16  3 23 10  0  0.0 0.401165802032D-03 0.250111042988D-11 0.000000000000D+00
    0.280000000000D+02-0.219375000000D+02 0.512378495188D-08-0.303396628545D-02
   -0.994652509689D-06 0.474857748486D-02 0.124238431454D-04 0.515371827507D+04
    0.295200000000D+06-0.260770320892D-07-0.731636008834D-01 0.111758708954D-07
    0.926783107094D+00 0.121718750000D+03 0.134639339048D+01-0.835570546087D-08
   -0.205722855417D-09 0.100000000000D+01 0.188900000000D+04 0.000000000000D+00
    0.200000000000D+01 0.000000000000D+00-0.838190317154D-08 0.280000000000D+02
    0.288030000000D+06 0.000000000000D+00 0.000000000000D+00 0.000000000000D+00
21 16  3 23 10  0  0.0-0.516063999385D-03-0.159161572810D-11 0.000000000000D+00
    0.650000000000D+02-0.729687500000D+02 0.547129941353D-08-0.309491589697D+01
   -0.393204391003D-05 0.233143517980D-01 0.386126339436D-05 0.515364690781D+04
    0.295200000000D+06 0.419095158577D-06-0.106335826727D+01-0.171363353729D-06
    0.935680928878D+00 0.288906250000D+03-0.181222132437D+01-0.837177704938D-08
   -0.329656579812D-09 0.100000000000D+01 0.188900000000D+04 0.000000000000D+00
    0.200000000000D+01 0.000000000000D+00-0.116415321827D-07 0.650000000000D+02
    0.294510000000D+06 0.000000000000D+00 0.000000000000D+00 0.000000000000D+00
22 16  3 23 10  0  0.0 0.376387964934D-03-0.682121026330D-11 0.000000000000D+00
    0.490000000000D+02-0.181562500000D+02 0.526236205564D-08 0.725841533688D+00
   -0.705942511558D-06 0.778945966158D-02 0.125840306282D-04 0.515507302856D+04
    0.295200000000D+06-0.912696123123D-07-0.205356847423D-01 0.242143869400D-07
    0.923406648279D+00 0.121156250000D+03-0.200561515920D+01-0.843570852398D-08
   -0.181436128972D-09 0.000000000000D+00 0.188900000000D+04 0.000000000000D+00
    0.200000000000D+01 0.000000000000D+00-0.176951289177D-07 0.490000000000D+02
    0.288000000000D+06 0.400000000000D+01 0.000000000000D+00 0.000000000000D+00
23 16  3 23 10  0  0.0-0.165987759829D-03-0.181898940355D-11 0.000000000000D+00
    0.370000000000D+02 0.739375000000D+02 0.508735476589D-08-0.525152023993D+00
    0.378303229809D-05 0.106099091936D-01 0.559911131859D-05 0.515370581818D+04
    0.295200000000D+06 0.931322574615D-07 0.105504690008D+01 0.156462192535D-06
    0.946305330467D+00 0.261687500000D+03-0.260219916598D+01-0.857071414750D-08
    0.268225458381D-09 0.000000000000D+00 0.188900000000D+04 0.000000000000D+00
    0.200000000000D+01 0.000000000000D+00-0.200234353542D-07 0.370000000000D+02
    0.288000000000D+06 0.400000000000D+01 0.000000000000D+00 0.000000000000D+00
24 16  3 23 10  0  0.0-0.143665820360D-04-0.682121026330D-12 0.000000000000D+00
    0.840000000000D+02-0.640000000000D+02 0.498235053215D-08-0.114490875263D+01
   -0.333413481712D-05 0.437048787717D-02 0.450015068054D-05 0.515362369347D+04
    0.295200000000D+06 0.875443220139D-07 0.208161722785D+01-0.633299350738D-07
    0.949878721461D+00 0.287625000000D+03 0.398854806909D+00-0.845713810094D-08
   -0.440018327330D-09 0.100000000000D+01 0.188900000000D+04 0.000000000000D+00
    0.280000000000D+01 0.000000000000D+00 0.232830643654D-08 0.840000000000D+02
    0.290700000000D+06 0.000000000000D+00 0.000000000000D+00 0.000000000000D+00
25 16  3 23 10  0  0.0-0.139356125146D-03-0.704858393874D-11 0.000000000000D+00
    0.790000000000D+02-0.856250000000D+01 0.359657836846D-08-0.307281110970D+01
   -0.426545739174D-06 0.542046350893D-02 0.133886933327D-04 0.515378829384D+04
    0.295200000000D+06-0.111758708954D-07-0.313124207223D+01 0.000000000000D+00
    0.978946810070D+00 0.131031250000D+03 0.727014596493D+00-0.747388284594D-08
    0.264296726865D-10 0.100000000000D+01 0.188900000000D+04 0.000000000000D+00
    0.200000000000D+01 0.000000000000D+00 0.558793544769D-08 0.790000000000D+02
    0.288030000000D+06 0.000000000000D+00 0.000000000000D+00 0.000000000000D+00
26 16  3 23 10  0  0.0-0.303307548165D-03-0.144382283907D-10 0.000000000000D+00
    0.370000000000D+02-0.181562500000D+02 0.413695803519D-08 0.250244420997D+01
   -0.922009348869D-06 0.964016886428D-03 0.128410756588D-04 0.515373667717D+04
    0.295200000000D+06 0.447034835815D-07-0.313906490085D+01 0.558793544769D-08
    0.960935140314D+00 0.131031250000D+03 0.295327903878D-01-0.783996942334D-08
   -0.328585115460D-10 0.100000000000D+01 0.188900000000D+04 0.000000000000D+00
    0.200000000000D+01 0.000000000000D+00 0.698491930962D-08 0.370000000000D+02
    0.288018000000D+06 0.400000000000D+01 0.000000000000D+00 0.000000000000D+00
27 16  3 23 10  0  0.0 0.747893936932D-04 0.375166564481D-11 0.000000000000D+00
    0.480000000000D+02 0.724062500000D+02 0.455376111100D-08 0.809081606045D+00
    0.372715294361D-05 0.340813922230D-02 0.610388815403D-05 0.515363340950D+04
    0.295200000000D+06 0.279396772385D-07-0.208993960349D+01-0.111758708954D-07
    0.970439346031D+00 0.267375000000D+03 0.215303464436D+00-0.820498462769D-08
    0.497520723735D-09 0.000000000000D+00 0.188900000000D+04 0.000000000000D+00
    0.200000000000D+01 0.000000000000D+00 0.139698386192D-08 0.480000000000D+02
    0.288000000000D+06 0.400000000000D+01 0.000000000000D+00 0.000000000000D+00
